SAVED_AT,EPOCH,OBJECT_NAME,OBJECT_ID,MEAN_MOTION,ECCENTRICITY,INCLINATION,RA_OF_ASC_NODE,ARG_OF_PERICENTER,MEAN_ANOMALY,EPHEMERIS_TYPE,CLASSIFICATION_TYPE,NORAD_CAT_ID,ELEMENT_SET_NO,REV_AT_EPOCH,BSTAR,MEAN_MOTION_DOT,MEAN_MOTION_DDOT
2026-07-04T17:00:20.311926,2026-07-03T23:17:27.197952,OBJECT A,2026-152A,15.63686476,0.00228241,20.5967,53.6074,194.7517,165.2263,0.0,U,69792.0,999.0,9.0,0.00016303419,0.00017031,0.0
2026-07-05T01:52:38.644310,2026-07-04T08:28:34.986144,OBJECT A,2026-152A,15.63889822,0.0023002,20.5982,50.667,199.1853,160.7727,0.0,U,69792.0,999.0,15.0,0.00018353489,0.00019217,0.0
2026-07-06T01:59:47.375828,2026-07-05T05:54:20.144736,OBJECT A,2026-152A,15.64253565,0.00228682,20.5935,43.8267,212.4554,147.4486,0.0,U,69792.0,999.0,29.0,0.0015430667,0.00159622,0.0
2026-07-06T06:59:12.748348,2026-07-05T05:54:20.098080,OBJECT A,2026-152A,15.6425633,0.0022889,20.5936,43.8261,212.3531,147.5511,0.0,U,69792.0,999.0,29.0,0.0015717,0.00162651,0.0
2026-07-06T12:34:48.038154,2026-07-05T18:08:56.338368,OBJECT A,2026-152A,15.64414753,0.00228153,20.5938,39.9182,219.9708,139.9057,0.0,U,69792.0,999.0,37.0,0.001559571,0.00162402,0.0
